start=new Date('2023-03-10T00:00:00.000Z').valueOf();
sats=[{"CENTER_NAME":"EARTH","ARG_OF_PERICENTER":"271.3672","MEAN_ANOMALY":"88.7214","OBJECT_ID":"2021-082P","ELEMENT_SET_NO":"999","MEAN_MOTION_DDOT":"0.0000000000000","NORAD_CAT_ID":"49143","DECAY_DATE":null,"RA_OF_ASC_NODE":"157.8912","MEAN_MOTION_DOT":"0.00004660","RCS_SIZE":"LARGE","PERIOD":"96.106","MEAN_ELEMENT_THEORY":"SGP4","COUNTRY_CODE":"US","REV_AT_EPOCH":"8341","LAUNCH_DATE":"2021-09-14","BSTAR":"0.00039794000000","EPOCH":"2023-03-09T16:14:45.159648","PERIAPSIS":"570.354","TIME_SYSTEM":"UTC","CLASSIFICATION_TYPE":"U","INCLINATION":"70.0033","APOAPSIS":"573.674","OBJECT_NAME":"STARLINK-3109","EPHEMERIS_TYPE":"0","MEAN_MOTION":"14.98344181","FILE":"3855951","GP_ID":"227767545","TLE_LINE2":"2 49143  70.0033 157.8912 0002389 271.3672  88.7214 14.98344181 83418","REF_FRAME":"TEME","OBJECT_TYPE":"PAYLOAD","TLE_LINE1":"1 49143U 21082P   23068.67691157  .00004660  00000-0  39794-3 0  9996","SEMIMAJOR_AXIS":"6950.149","ECCENTRICITY":"0.00023890","SITE":"AFWTR"},{"TLE_LINE1":"1 49144U 21082Q   23068.70419840  .00002357  00000-0  20521-3 0  9997","SEMIMAJOR_AXIS":"6950.146","ECCENTRICITY":"0.00032640","SITE":"AFWTR","GP_ID":"227766295","TLE_LINE2":"2 49144  69.9989 177.8245 0003264 259.8384 100.2407 14.98345165 81810","REF_FRAME":"TEME","OBJECT_TYPE":"PAYLOAD","APOAPSIS":"574.280","OBJECT_NAME":"STARLINK-3100","EPHEMERIS_TYPE":"0","FILE":"3855951","MEAN_MOTION":"14.98345165","BSTAR":"0.00020521000000","PERIAPSIS":"569.742","EPOCH":"2023-03-09T16:54:02.741760","CLASSIFICATION_TYPE":"U","TIME_SYSTEM":"UTC","INCLINATION":"69.9989","PERIOD":"96.106","MEAN_ELEMENT_THEORY":"SGP4","COUNTRY_CODE":"US","LAUNCH_DATE":"2021-09-14","REV_AT_EPOCH":"8181","RA_OF_ASC_NODE":"177.8245","MEAN_MOTION_DOT":"0.00002357","RCS_SIZE":"LARGE","ELEMENT_SET_NO":"999","NORAD_CAT_ID":"49144","MEAN_MOTION_DDOT":"0.0000000000000","DECAY_DATE":null,"ARG_OF_PERICENTER":"259.8384","CENTER_NAME":"EARTH","MEAN_ANOMALY":"100.2407","OBJECT_ID":"2021-082Q"},{"EPHEMERIS_TYPE":"0","FILE":"3855951","MEAN_MOTION":"14.98330974","APOAPSIS":"573.999","OBJECT_NAME":"STARLINK-3119","TIME_SYSTEM":"UTC","CLASSIFICATION_TYPE":"U","INCLINATION":"70.0012","BSTAR":"-0.00000991750000","PERIAPSIS":"570.111","EPOCH":"2023-03-09T22:06:51.668640","TLE_LINE1":"1 49145U 21082R   23068.92143135 -.00000211  00000-0 -99175-5 0  9995","SEMIMAJOR_AXIS":"6950.190","SITE":"AFWTR","ECCENTRICITY":"0.00027970","OBJECT_TYPE":"PAYLOAD","TLE_LINE2":"2 49145  70.0012 137.2806 0002797 273.0386  87.0453 14.98330974 82821","GP_ID":"227766544","REF_FRAME":"TEME","ELEMENT_SET_NO":"999","MEAN_MOTION_DDOT":"0.0000000000000","NORAD_CAT_ID":"49145","DECAY_DATE":null,"OBJECT_ID":"2021-082R","CENTER_NAME":"EARTH","ARG_OF_PERICENTER":"273.0386","MEAN_ANOMALY":"87.0453","COUNTRY_CODE":"US","LAUNCH_DATE":"2021-09-14","REV_AT_EPOCH":"8282","PERIOD":"96.107","MEAN_ELEMENT_THEORY":"SGP4","RA_OF_ASC_NODE":"137.2806","MEAN_MOTION_DOT":"-0.00000211","RCS_SIZE":"LARGE"},{"CLASSIFICATION_TYPE":"U","TIME_SYSTEM":"UTC","INCLINATION":"70.0001","BSTAR":"0.00178470000000","PERIAPSIS":"569.746","EPOCH":"2023-03-09T16:07:52.846752","EPHEMERIS_TYPE":"0","MEAN_MOTION":"14.98372542","FILE":"3855951","APOAPSIS":"574.107","OBJECT_NAME":"STARLINK-3116","OBJECT_TYPE":"PAYLOAD","TLE_LINE2":"2 49146  70.0001 157.9056 0003137 263.5583  96.5219 14.98372542 83450","GP_ID":"227767291","REF_FRAME":"TEME","SEMIMAJOR_AXIS":"6950.061","TLE_LINE1":"1 49146U 21082S   23068.67213943  .00021290  00000-0  17847-2 0  9994","ECCENTRICITY":"0.00031370","SITE":"AFWTR","OBJECT_ID":"2021-082S","CENTER_NAME":"EARTH","ARG_OF_PERICENTER":"263.5583","MEAN_ANOMALY":"96.5219","ELEMENT_SET_NO":"999","NORAD_CAT_ID":"49146","MEAN_MOTION_DDOT":"0.0000000000000","DECAY_DATE":null,"RA_OF_ASC_NODE":"157.9056","MEAN_MOTION_DOT":"0.00021290","RCS_SIZE":"LARGE","COUNTRY_CODE":"US","LAUNCH_DATE":"2021-09-14","REV_AT_EPOCH":"8345","PERIOD":"96.104","MEAN_ELEMENT_THEORY":"SGP4"},{"OBJECT_ID":"2021-082T","CENTER_NAME":"EARTH","ARG_OF_PERICENTER":"257.6757","MEAN_ANOMALY":"102.4088","ELEMENT_SET_NO":"999","NORAD_CAT_ID":"49147","MEAN_MOTION_DDOT":"0.0000000000000","DECAY_DATE":null,"MEAN_MOTION_DOT":"-0.00000026","RA_OF_ASC_NODE":"138.2628","RCS_SIZE":"LARGE","COUNTRY_CODE":"US","LAUNCH_DATE":"2021-09-14","REV_AT_EPOCH":"8277","PERIOD":"96.106","MEAN_ELEMENT_THEORY":"SGP4","CLASSIFICATION_TYPE":"U","TIME_SYSTEM":"UTC","INCLINATION":"69.9992","BSTAR":"0.00000557980000","EPOCH":"2023-03-09T12:43:47.229600","PERIAPSIS":"570.072","EPHEMERIS_TYPE":"0","FILE":"3855951","MEAN_MOTION":"14.98342318","APOAPSIS":"573.967","OBJECT_NAME":"STARLINK-3071","OBJECT_TYPE":"PAYLOAD","TLE_LINE2":"2 49147  69.9992 138.2628 0002802 257.6757 102.4088 14.98342318 82772","GP_ID":"227768046","REF_FRAME":"TEME","SEMIMAJOR_AXIS":"6950.155","TLE_LINE1":"1 49147U 21082T   23068.53040775 -.00000026  00000-0  55798-5 0  9996","SITE":"AFWTR","ECCENTRICITY":"0.00028020"},{"APOAPSIS":"574.280","OBJECT_NAME":"STARLINK-3048","EPHEMERIS_TYPE":"0","FILE":"3855951","MEAN_MOTION":"14.98342344","BSTAR":"0.00018389000000","PERIAPSIS":"569.760","EPOCH":"2023-03-09T12:48:44.664192","TIME_SYSTEM":"UTC","CLASSIFICATION_TYPE":"U","INCLINATION":"70.0010","SEMIMAJOR_AXIS":"6950.155","TLE_LINE1":"1 49148U 21082U   23068.53385028  .00002103  00000-0  18389-3 0  9990","ECCENTRICITY":"0.00032520","SITE":"AFWTR","GP_ID":"227766796","TLE_LINE2":"2 49148  70.0010 158.2532 0003252 267.8229  92.2558 14.98342344 82272","REF_FRAME":"TEME","OBJECT_TYPE":"PAYLOAD","ELEMENT_SET_NO":"999","MEAN_MOTION_DDOT":"0.0000000000000","NORAD_CAT_ID":"49148","DECAY_DATE":null,"ARG_OF_PERICENTER":"267.8229","CENTER_NAME":"EARTH","MEAN_ANOMALY":"92.2558","OBJECT_ID":"2021-082U","PERIOD":"96.106","MEAN_ELEMENT_THEORY":"SGP4","COUNTRY_CODE":"US","LAUNCH_DATE":"2021-09-14","REV_AT_EPOCH":"8227","RA_OF_ASC_NODE":"158.2532","MEAN_MOTION_DOT":"0.00002103","RCS_SIZE":"LARGE"},{"CENTER_NAME":"EARTH","ARG_OF_PERICENTER":"260.1301","MEAN_ANOMALY":"99.9526","OBJECT_ID":"2021-082V","NORAD_CAT_ID":"49149","MEAN_MOTION_DDOT":"0.0000000000000","ELEMENT_SET_NO":"999","DECAY_DATE":null,"RA_OF_ASC_NODE":"178.1730","MEAN_MOTION_DOT":"0.00001612","RCS_SIZE":"LARGE","MEAN_ELEMENT_THEORY":"SGP4","PERIOD":"96.107","COUNTRY_CODE":"US","LAUNCH_DATE":"2021-09-14","REV_AT_EPOCH":"8298","BSTAR":"0.00014290000000","EPOCH":"2023-03-09T13:34:55.096608","PERIAPSIS":"570.014","TIME_SYSTEM":"UTC","CLASSIFICATION_TYPE":"U","INCLINATION":"69.9999","APOAPSIS":"574.104","OBJECT_NAME":"STARLINK-3053","MEAN_MOTION":"14.98329650","FILE":"3855951","EPHEMERIS_TYPE":"0","GP_ID":"227767045","TLE_LINE2":"2 49149  69.9999 178.1730 0002943 260.1301  99.9526 14.98329650 82982","REF_FRAME":"TEME","OBJECT_TYPE":"PAYLOAD","SEMIMAJOR_AXIS":"6950.194","TLE_LINE1":"1 49149U 21082V   23068.56591547  .00001612  00000-0  14290-3 0  9990","SITE":"AFWTR","ECCENTRICITY":"0.00029430"},{"RA_OF_ASC_NODE":"177.8499","MEAN_MOTION_DOT":"0.00004302","RCS_SIZE":"LARGE","PERIOD":"96.105","MEAN_ELEMENT_THEORY":"SGP4","COUNTRY_CODE":"US","LAUNCH_DATE":"2021-09-14","REV_AT_EPOCH":"8300","CENTER_NAME":"EARTH","ARG_OF_PERICENTER":"264.1953","MEAN_ANOMALY":"95.8906","OBJECT_ID":"2021-082W","ELEMENT_SET_NO":"999","MEAN_MOTION_DDOT":"0.0000000000000","NORAD_CAT_ID":"49150","DECAY_DATE":null,"GP_ID":"227767792","TLE_LINE2":"2 49150  70.0008 177.8499 0002631 264.1953  95.8906 14.98357300 83001","REF_FRAME":"TEME","OBJECT_TYPE":"PAYLOAD","SEMIMAJOR_AXIS":"6950.108","TLE_LINE1":"1 49150U 21082W   23068.69464410  .00004302  00000-0  36782-3 0  9993","ECCENTRICITY":"0.00026310","SITE":"AFWTR","BSTAR":"0.00036782000000","EPOCH":"2023-03-09T16:40:17.250240","PERIAPSIS":"570.145","TIME_SYSTEM":"UTC","CLASSIFICATION_TYPE":"U","INCLINATION":"70.0008","APOAPSIS":"573.802","OBJECT_NAME":"STARLINK-3104","EPHEMERIS_TYPE":"0","FILE":"3855951","MEAN_MOTION":"14.98357300"},{"PERIOD":"96.107","MEAN_ELEMENT_THEORY":"SGP4","REV_AT_EPOCH":"8402","LAUNCH_DATE":"2021-09-14","COUNTRY_CODE":"US","RCS_SIZE":"LARGE","MEAN_MOTION_DOT":"-0.00006561","RA_OF_ASC_NODE":"137.3016","DECAY_DATE":null,"ELEMENT_SET_NO":"999","NORAD_CAT_ID":"49151","MEAN_MOTION_DDOT":"0.0000000000000","MEAN_ANOMALY":"99.6830","CENTER_NAME":"EARTH","ARG_OF_PERICENTER":"260.3951","OBJECT_ID":"2021-082X","ECCENTRICITY":"0.00033510","SITE":"AFWTR","TLE_LINE1":"1 49151U 21082X   23068.91189464 -.00006561  00000-0 -54260-3 0  9994","SEMIMAJOR_AXIS":"6950.192","REF_FRAME":"TEME","GP_ID":"227767546","TLE_LINE2":"2 49151  70.0012 137.3016 0003351 260.3951  99.6830 14.98330145 84028","OBJECT_TYPE":"PAYLOAD","OBJECT_NAME":"STARLINK-3102","APOAPSIS":"574.386","EPHEMERIS_TYPE":"0","FILE":"3855951","MEAN_MOTION":"14.98330145","PERIAPSIS":"569.728","EPOCH":"2023-03-09T21:53:07.696896","BSTAR":"-0.00054260000000","INCLINATION":"70.0012","TIME_SYSTEM":"UTC","CLASSIFICATION_TYPE":"U"},{"REV_AT_EPOCH":"8394","LAUNCH_DATE":"2021-09-14","COUNTRY_CODE":"US","MEAN_ELEMENT_THEORY":"SGP4","PERIOD":"96.106","RCS_SIZE":"LARGE","RA_OF_ASC_NODE":"137.3597","MEAN_MOTION_DOT":"0.00006082","DECAY_DATE":null,"MEAN_MOTION_DDOT":"0.0000000000000","NORAD_CAT_ID":"49152","ELEMENT_SET_NO":"999","OBJECT_ID":"2021-082Y","MEAN_ANOMALY":"76.7679","CENTER_NAME":"EARTH","ARG_OF_PERICENTER":"283.3193","ECCENTRICITY":"0.00025790","SITE":"AFWTR","TLE_LINE1":"1 49152U 21082Y   23068.88805236  .00006082  00000-0  51678-3 0  9999","SEMIMAJOR_AXIS":"6950.132","OBJECT_TYPE":"PAYLOAD","REF_FRAME":"TEME","TLE_LINE2":"2 49152  70.0026 137.3597 0002579 283.3193  76.7679 14.98349763 83945","GP_ID":"227766296","FILE":"3855951","MEAN_MOTION":"14.98349763","EPHEMERIS_TYPE":"0","OBJECT_NAME":"STARLINK-3081","APOAPSIS":"573.789","INCLINATION":"70.0026","TIME_SYSTEM":"UTC","CLASSIFICATION_TYPE":"U","PERIAPSIS":"570.204","EPOCH":"2023-03-09T21:18:47.723904","BSTAR":"0.00051678000000"}];
